STARLINK-5611           
1 55761U 23028W   26068.85727611  .00000396  00000+0  40944-4 0  9990
2 55761  69.9998 224.2157 0003108 273.1750  86.9054 14.98332841166554
BRO-15                  
1 60553U 24149CP  26068.78650368  .00000816  00000+0  78021-4 0  9990
2 60553  97.6864 146.0377 0009320  65.4416 294.7775 14.95892184 85149
